ORBCOMM FM39 [-]        
1 33063U 08031D   23304.19060936  .00002715  00000+0  42830-3 0  9997
2 33063  48.4414 292.2360 0007955 329.8170  30.2284 14.75088983826257
ORBCOMM FM37 [-]        
1 33064U 08031E   23303.91447755  .00003078  00000+0  47917-3 0  9999
2 33064  48.4407 283.0809 0006275 345.6852  32.5100 14.75317279826034
ORBCOMM FM40 [-]        
1 33065U 08031F   23304.20184257  .00003109  00000+0  47176-3 0  9990
2 33065  48.4431 272.7787 0007536 355.4253  17.9146 14.76398770826535
VESSELSAT 1 [-]         
1 37840U 11058C   23304.09102307  .00000448  00000+0  10030-3 0  9993
2 37840  19.9614  93.9692 0013763 121.7875 238.3871 14.11077036622375
ORBCOMM FM109 [+]       
1 40086U 14040A   23303.99408578  .00001253  00000+0  31930-3 0  9997
2 40086  47.0043 302.3737 0000921  91.1408 268.9582 14.56034394494385
ORBCOMM FM107 [+]       
1 40087U 14040B   23303.41071880  .00001521  00000+0  37972-3 0  9997
2 40087  47.0061 306.0548 0001115   9.7055 350.3851 14.56037640494254
ORBCOMM FM106 [-]       
1 40088U 14040C   23303.87016811  .00001650  00000+0  32944-3 0  9998
2 40088  47.0603 171.0548 0018291 188.3360 171.7228 14.66167673496024
ORBCOMM FM111 [-]       
1 40089U 14040D   23303.68631353  .00004043  00000+0  54698-3 0  9991
2 40089  47.0036  95.2215 0034306 233.9914 125.7799 14.80247879501831
ORBCOMM FM104 [-]       
1 40090U 14040E   23303.80641970  .00001111  00000+0  29630-3 0  9994
2 40090  47.0068 330.9965 0017190   4.3821 355.7211 14.54584551493889
ORBCOMM FM103 [+]       
1 40091U 14040F   23303.50071342  .00001195  00000+0  30660-3 0  9999
2 40091  47.0064 305.9445 0001208  44.2682 315.8299 14.56013463477237
ORBCOMM FM114 [+]       
1 41179U 15081A   23303.81045259  .00001685  00000+0  41654-3 0  9994
2 41179  47.0025 213.8372 0001194 133.4034 226.6950 14.56030609417692
ORBCOMM FM119 [-]       
1 41180U 15081B   23303.84645564  .00001118  00000+0  28923-3 0  9999
2 41180  46.9995 122.8594 0001830 217.1152 142.9606 14.56007448418909
ORBCOMM FM105 [-]       
1 41181U 15081C   23303.73468429  .00000612  00000+0  22281-3 0  9990
2 41181  47.0016  72.8691 0002090 191.5534 168.5298 14.44075815414655
ORBCOMM FM110 [+]       
1 41182U 15081D   23303.85601963  .00001878  00000+0  45979-3 0  9990
2 41182  47.0015 213.0472 0002277 322.0828  37.9896 14.56039912417708
ORBCOMM FM118 [+]       
1 41183U 15081E   23303.83325562  .00001880  00000+0  46025-3 0  9993
2 41183  47.0037 213.4211 0002510 319.7623  40.3075 14.56043862417621
ORBCOMM FM112 [+]       
1 41184U 15081F   23303.82441463  .00001344  00000+0  34009-3 0  9996
2 41184  46.9979 122.2170 0001786 196.9450 163.1375 14.56006091418848
ORBCOMM FM113 [+]       
1 41185U 15081G   23303.86911999  .00001489  00000+0  37239-3 0  9995
2 41185  46.9997 122.2290 0001454 213.3106 146.7687 14.56030025418832
ORBCOMM FM115 [+]       
1 41186U 15081H   23303.97276510  .00001303  00000+0  30423-3 0  9994
2 41186  47.0006 344.6023 0001452 249.3380 110.7351 14.60046418420729
ORBCOMM FM108 [+]       
1 41187U 15081J   23303.75437287  .00001227  00000+0  31393-3 0  9993
2 41187  47.0064  33.9023 0001568 120.8970 239.2069 14.55996926419967
ORBCOMM FM117 [+]       
1 41188U 15081K   23303.65156982  .00001610  00000+0  39994-3 0  9994
2 41188  47.0021  33.3453 0002361 134.0343 226.0736 14.56009141419998
ORBCOMM FM116 [+]       
1 41189U 15081L   23304.19020294  .00000780  00000+0  21329-3 0  9991
2 41189  47.0008 120.6180 0002532 214.1670 145.9052 14.55999078418955
O3B FM5                 
1 39188U 13031A   23303.60341439 -.00000024  00000+0  00000+0 0  9993
2 39188   0.0346   0.9849 0002997 215.4704 143.5298  5.00115679188984
O3B FM4                 
1 39189U 13031B   23303.45914864 -.00000024  00000+0  00000+0 0  9995
2 39189   0.0609  11.9179 0002956 199.9110 148.1588  5.00116195188984
O3B FM2                 
1 39190U 13031C   23303.75104374 -.00000024  00000+0  00000+0 0  9997
2 39190   0.0655  13.7815 0002802 203.3151 142.8895  5.00115335189066
O3B PFM                 
1 39191U 13031D   23303.57692931 -.00000024  00000+0  00000+0 0  9999
2 39191   0.0433   4.0584 0002587 214.5936 141.3350  5.00115993188612
O3B FM3                 
1 40079U 14038A   23303.63127075 -.00000024  00000+0  00000+0 0  9993
2 40079   0.0533  10.5257 0000671 270.3150  79.1574  5.00116668164990
O3B FM7                 
1 40080U 14038B   23303.77783670 -.00000024  00000+0  00000+0 0  9999
2 40080   0.0554  14.7224 0004331 193.2495 152.0102  5.00115866169832
O3B FM6                 
1 40081U 14038C   23303.20486924 -.00000023  00000+0  00000+0 0  9999
2 40081   0.0542   9.9241 0002638 206.7402 143.3232  5.00115179169745
O3B FM8                 
1 40082U 14038D   23303.45829148 -.00000024  00000+0  00000+0 0  9997
2 40082   0.0545  11.0500 0002648 210.4425 138.4929  5.00115256169877
O3B FM10                
1 40348U 14083A   23303.28488748 -.00000023  00000+0  00000+0 0  9999
2 40348   0.0483   2.2623 0002633 215.8964 141.8282  5.00115313161823
O3B FM11                
1 40349U 14083B   23303.49806237 -.00000024  00000+0  00000+0 0  9991
2 40349   0.0455   7.0552 0003075 200.5463 152.3876  5.00115506161856
O3B FM12                
1 40350U 14083C   23303.32545721 -.00000023  00000+0  00000+0 0  9992
2 40350   0.0465   6.8906 0002603 207.4392 145.6589  5.00115440161855
O3B FM9                 
1 40351U 14083D   23303.75173984 -.00000024  00000+0  00000+0 0  9999
2 40351   0.0446   8.0507 0002703 209.5593 142.3765  5.00115000162025
DIAMOND RED             
1 42783U 17036U   23303.81447776  .00060775  00000+0  10483-2 0  9998
2 42783  97.1335 336.2969 0004853 351.2719   8.8448 15.50818736353737
DIAMOND GREEN           
1 42785U 17036W   23303.54769664  .00057353  00000+0  90459-3 0  9993
2 42785  97.1307 336.5311 0004414 350.1226   9.9940 15.53343637353797
DIAMOND BLUE            
1 42786U 17036X   23304.03009726  .00064956  00000+0  10805-2 0  9998
2 42786  97.1334 336.8020 0004266 344.3484  15.7637 15.51826577353777
LEO VANTAGE 1           
1 43113U 18004C   23304.13319706  .00006489  00000+0  49608-3 0  9993
2 43113  99.2753  84.3582 0386750 123.4188 240.4629 14.58034447297077
O3B FM15                
1 43231U 18024A   23303.61796553 -.00000024  00000+0  00000+0 0  9996
2 43231   0.0501 358.8997 0002667 216.9898 144.0981  5.00114544102974
O3B FM16                
1 43232U 18024B   23303.47106533 -.00000024  00000+0  00000+0 0  9994
2 43232   0.0518 354.4840 0002717 220.1811 145.3227  5.00116260102884
O3B FM14                
1 43233U 18024C   23303.11137065 -.00000023  00000+0  00000+0 0  9999
2 43233   0.0530 353.4747 0002897 220.3213 146.1911  5.00115725102874
O3B FM13                
1 43234U 18024D   23303.56484972 -.00000024  00000+0  00000+0 0  9992
2 43234   0.0460  17.9176 0002282 186.3792 155.6980  5.00115634103013
O3B FM20                
1 44112U 19020A   23303.33794175 -.00000023  00000+0  00000+0 0  9998
2 44112   0.0490   2.5420 0002739 205.2774 152.1716  5.00115733 83502
O3B FM19                
1 44113U 19020B   23303.56483891 -.00000024  00000+0  00000+0 0  9995
2 44113   0.0328   6.0155 0004189 208.7833 145.1793  5.00115664 83388
O3B FM17                
1 44114U 19020C   23303.64496017 -.00000024  00000+0  00000+0 0  9999
2 44114   0.0684 359.2462 0002631 215.6873 145.0547  5.00116013 83474
O3B FM18                
1 44115U 19020D   23303.59139578 -.00000024  00000+0  00000+0 0  9990
2 44115   0.0485   2.6128 0002712 215.9078 141.4655  5.00116001 83592
SALSAT                  
1 46495U 20068K   23303.84236908  .00007922  00000+0  49861-3 0  9995
2 46495  97.7859 253.5186 0015927  26.4946 333.7094 15.09370637169523
O3B MPOWER F1           
1 54755U 22174A   23303.80273372 -.00000024  00000+0  00000+0 0  9990
2 54755   0.0520  19.1211 0005338 215.0261   7.7383  5.00118359 17318
O3B MPOWER F2           
1 54756U 22174B   23303.58012318 -.00000024  00000+0  00000+0 0  9997
2 54756   0.0543  18.9293 0007900 243.7663  97.2202  5.00113480 17383
O3B MPOWER F4           
1 56367U 23059A   23303.50110752 -.00000024  00000+0  00000+0 0  9993
2 56367   0.0375   7.5136 0006783 223.6399 128.7915  5.00114939 10549
O3B MPOWER F3           
1 56368U 23059B   23303.80111837 -.00000024  00000+0  00000+0 0  9992
2 56368   0.0364   4.5104 0003510 249.6611 105.7953  5.00114678  6698
<!DOCTYPE html PUBLIC "-//W3C//DTD XHTML 1.0 Strict//EN" "http://www.w3.org/TR/xhtml1/DTD/xhtml1-strict.dtd">
<html xmlns="http://www.w3.org/1999/xhtml">
<head>
<meta http-equiv="Content-Type" content="text/html; charset=iso-8859-1"/>
<title>404 - File Not Found.</title>
<style type="text/css">
<!--
body{margin:0;font-size:.7em;font-family:Verdana, Arial, Helvetica, sans-serif;background:#EEEEEE;}
fieldset{padding:0 15px 10px 15px;}
h1{font-size:2.4em;margin:0;color:#FFF;}
h2{font-size:1.7em;margin:0;color:#CC0000;}
h3{font-size:1.2em;margin:10px 0 0 0;color:#000000;}
#header{width:96%;margin:0 0 0 0;padding:6px 2% 6px 2%;font-family:"trebuchet MS", Verdana, sans-serif;color:#FFF;
background-color:#555555;}
#content{margin:0 0 0 2%;position:relative;}
.content-container{background:#FFF;width:96%;margin-top:8px;padding:10px;position:relative;}
-->
</style>
</head>
<body>
<div id="header"><h1>Server Error</h1></div>
<div id="content">
 <div class="content-container"><fieldset>
  <h2>404 - File Not Found.</h2>
  <h3>File not found for celestrak.org/NORAD/elements/other.txt.</h3>
  <h3>Please contact <a href="mailto:ts.kelso@celestrak.org">ts.kelso@celestrak.org</a> if you have other questions.</h3>
 </fieldset></div>
</div>
</body>
</html>
CALSPHERE 1             
1 00900U 64063C   23303.71610883  .00001063  00000+0  11102-2 0  9999
2 00900  90.1978  50.5653 0024417 317.0454 138.6908 13.74571689939367
